satname,norad_id,inclination_deg,eccentricity,mean_motion_rev_per_day,perigee_km,apogee_km,l1,l2
STARLINK-1255,45399,53.0433,0.0001914,15.50362509,414.3665011649482,416.9671692730708,1 45399U 20019AR  26061.47250574  .00087951  00000+0  15142-2 0  9995,2 45399  53.0433 137.4361 0001914 260.0637 100.0155 15.50362509329310
STARLINK-1260,45404,53.1619,0.0001375,15.3020043,474.27144978412343,476.15612125014013,1 45404U 20019AW  26061.57841746  .00001108  00000+0  49541-4 0  9992,2 45404  53.1619 162.2733 0001375  99.7952 260.3205 15.30200430328880
STARLINK-1263,45405,53.1602,0.0001252,15.30201518,474.35249783706604,476.0685760603192,1 45405U 20019AX  26061.56682975  .00003053  00000+0  11515-3 0  9999,2 45405  53.1602 162.3559 0001252  94.5194 265.5949 15.30201518328885
STARLINK-1265,45406,53.1596,0.000118,15.30191006,474.433225300646,476.0506227267133,1 45406U 20019AY  26061.51629655  .00008905  00000+0  31252-3 0  9992,2 45406  53.1596 162.6652 0001180  90.6342 269.4794 15.30191006328877
STARLINK-1278,45408,53.0463,7.76e-05,15.54250955,403.8045656454706,404.8572046612462,1 45408U 20019BA  26061.51920733  .00106800  00000+0  15938-2 0  9990,2 45408  53.0463 165.0729 0000776  98.6921 261.4176 15.54250955328842
STARLINK-1296,45412,53.1599,0.0001297,15.30200492,474.3247208235298,476.1024799692732,1 45412U 20019BE  26061.64057100  .00005744  00000+0  20591-3 0  9995,2 45412  53.1599 161.9907 0001297  92.3137 267.8013 15.30200492328890
STARLINK-1298,45413,53.0355,0.0007368,15.9208998,291.5173753923982,301.35302498659803,1 45413U 20019BF  26061.91668981  .00261312  36748-4  77305-3 0  9994,2 45413  53.0355  88.5859 0007368 353.5167  75.6600 15.92089980  6053
STARLINK-1309,45414,53.068,0.0004271,15.53376544,403.97804617627935,409.7738042169831,1 45414U 20019BG  26061.91668981  .00058644  00000+0  91201-3 0  9995,2 45414  53.0680 156.2965 0004271   9.6827 221.2599 15.53376544  5875
STARLINK-1316,45415,53.1593,0.0001374,15.30201247,474.2696960418716,476.1529961673814,1 45415U 20019BH  26061.55524645  .00004927  00000+0  17834-3 0  9999,2 45415  53.1593 162.4381 0001374  84.8533 275.2624 15.30201247328903
STARLINK-1286,45417,53.0497,0.0002407,15.50275117,414.28682267058866,417.5574827467026,1 45417U 20019BK  26061.51620438  .00044345  00000+0  77397-3 0  9992,2 45417  53.0497 165.1757 0002407  58.7304 301.3940 15.50275117329113
STARLINK-1308,45419,53.0551,5.63e-05,15.49570773,417.59816258048886,418.36340544296945,1 45419U 20019BM  26061.65401962  .00033758  00000+0  60676-3 0  9996,2 45419  53.0551 185.8604 0000563 359.3619   0.7388 15.49570773328586
STARLINK-1329,45531,53.0492,0.0001909,15.54592109,402.0439937200408,404.63316109549487,1 45531U 20025A   26061.44493780  .00102935  00000+0  15181-2 0  9998,2 45531  53.0492 116.3970 0001909 280.4418  79.6377 15.54592109324320
STARLINK-1338,45532,53.0507,0.0004737,15.53177803,404.2403743205268,410.6690439057402,1 45532U 20025B   26061.43469200  .00092092  00000+0  14321-2 0  9995,2 45532  53.0507 119.7499 0004737 327.1355  32.9360 15.53177803324279
STARLINK-1350,45535,53.0714,0.0001831,15.35863755,457.1043456263742,459.6078694023463,1 45535U 20025E   26061.43815167  .00014955  00000+0  43234-3 0  9993,2 45535  53.0714  67.1954 0001831  57.8386 302.2793 15.35863755325044
STARLINK-1362,45538,53.1613,0.0001345,15.30194056,474.3110389489493,476.1545954297726,1 45538U 20025H   26061.47135777  .00002210  00000+0  86747-4 0  9990,2 45538  53.1613 134.5261 0001345  79.5181 280.5971 15.30194056324074
STARLINK-1368,45540,53.1598,0.0001281,15.30200777,474.3348353354586,476.0906635412639,1 45540U 20025K   26061.61150643  .00001966  00000+0  78490-4 0  9991,2 45540  53.1598 134.2063 0001281  87.2720 272.8427 15.30200777324089
STARLINK-1371,45542,53.0518,0.0001827,15.45688314,428.11261921392634,430.6000772833768,1 45542U 20025M   26061.44461424  .00077169  00000+0  15665-2 0  9997,2 45542  53.0518 123.9975 0001827 291.7088  68.3723 15.45688314324219
STARLINK-1372,45543,53.161,0.0001273,15.30188099,474.3781676484841,476.12304013243465,1 45543U 20025N   26061.58828928  .00001118  00000+0  49891-4 0  9990,2 45543  53.1610 134.0095 0001273  78.4719 281.6425 15.30188099323189
STARLINK-1373,45544,53.0523,0.0004948,15.49392719,415.13846411030045,421.8644175113268,1 45544U 20025P   26061.53997460  .00155232  00000+0  27349-2 0  9993,2 45544  53.0523 123.2784 0004948 345.9569  14.1300 15.49392719324238
STARLINK-1294,45551,53.0153,0.0002886,16.43021028,155.89220584748182,159.66473625737308,1 45551U 20025W   26062.03518160  .10607768  12427-4  52599-3 0  9997,2 45551  53.0153   7.7715 0002886 245.8546 114.2199 16.43021028325895
STARLINK-1327,45555,53.0487,0.0006001,15.52338106,405.8279797885307,413.974983574245,1 45555U 20025AA  26061.51023342  .00095445  00000+0  15286-2 0  9998,2 45555  53.0487 101.2477 0006001  25.2777 334.8524 15.52338106324532
STARLINK-1356,45564,53.0515,0.0005657,15.43728535,431.26232681748934,438.97084192284456,1 45564U 20025AK  26061.41768307  .00035409  00000+0  77704-3 0  9992,2 45564  53.0515 108.4461 0005657   3.9771 356.1278 15.43728535324429
STARLINK-1357,45565,53.0533,0.0003523,15.53717508,403.4932291483865,408.2732498091236,1 45565U 20025AL  26061.32177560  .00102527  00000+0  15609-2 0  9999,2 45565  53.0533  73.6136 0003523  44.9566 315.1728 15.53717508324917
STARLINK-1361,45567,53.0516,0.0007236,15.46257813,422.7600505336459,432.6094357603288,1 45567U 20025AN  26061.58286464  .00071980  00000+0  14333-2 0  9994,2 45567  53.0516 107.8538 0007236   2.3979 357.7061 15.46257813324458
STARLINK-1363,45568,53.043,0.000858,15.74842584,339.310644766364,350.8476837041917,1 45568U 20025AP  26061.27666620  .00107367  00000+0  70633-3 0  9992,2 45568  53.0430  74.6903 0008580  29.6246 330.5257 15.74842584324882
STARLINK-1366,45569,53.0435,0.0008689,15.74192234,341.08734486223693,352.7741676090227,1 45569U 20025AQ  26061.41541408  .00143421  00000+0  96487-3 0  9991,2 45569  53.0435  74.7392 0008689  29.1828 330.9674 15.74192234324890
STARLINK-1376,45570,53.1617,0.0001377,15.29357351,476.78816940771594,478.67627579161945,1 45570U 20025AR  26061.39999611  .00001036  00000+0  48243-4 0  9996,2 45570  53.1617 111.6216 0001377  86.8813 273.2345 15.29357351324383
STARLINK-1320,45572,53.0505,0.000792,15.67372546,361.08226812069915,371.76565268197464,1 45572U 20025AT  26061.28573307  .00081507  00000+0  73728-3 0  9992,2 45572  53.0505  22.2281 0007920  31.0104 329.1377 15.67372546325645
STARLINK-1321,45573,53.0497,0.0004363,15.46906143,422.81444994043613,428.7515505326428,1 45573U 20025AU  26061.39649442  .00083556  00000+0  16242-2 0  9992,2 45573  53.0497  93.3606 0004363  13.0524 347.0594 15.46906143324338
STARLINK-1331,45578,53.0532,0.0003918,15.46923058,423.06764491611375,428.3991577626048,1 45578U 20025AZ  26061.79131154  .00082668  00000+0  16064-2 0  9992,2 45578  53.0532  98.1435 0003918  55.9198 304.2180 15.46923058324614
STARLINK-1333,45580,53.1607,0.0001443,15.3018094,474.28303281868557,476.2609266502368,1 45580U 20025BB  26061.50874513  .00001602  00000+0  66252-4 0  9992,2 45580  53.1607 111.1645 0001443  95.0488 265.0678 15.30180940324409
STARLINK-1335,45581,53.1314,0.0001808,15.24166474,492.04713865455597,494.5318464742677,1 45581U 20025BC  26061.91668981  .01805020  00000+0  66690-1 0  9998,2 45581  53.1314 106.4316 0001808  88.2934 351.6196 15.24166474  5831
STARLINK-1337,45582,53.0535,0.0004345,15.56965786,393.500789603032,399.3879007920077,1 45582U 20025BD  26061.75488641  .00106992  00000+0  14444-2 0  9996,2 45582  53.0535  95.4107 0004345  54.9938 305.1480 15.56965786324634
STARLINK-1347,45586,53.0461,0.0006076,15.52423211,405.5291344102234,413.77765729926614,1 45586U 20025BH  26061.28246156  .00104548  00000+0  16666-2 0  9994,2 45586  53.0461  65.2088 0006076  22.8529 337.2749 15.52423211325017
STARLINK-1364,45589,53.0511,0.0007075,15.48009336,417.73857552797926,427.36154772017744,1 45589U 20025BL  26061.39613317  .00079410  00000+0  14861-2 0  9990,2 45589  53.0511  98.1376 0007075  26.9400 333.1973 15.48009336324560
STARLINK-1365,45590,53.053,0.0002944,15.44197146,431.7327057081875,435.74353777987017,1 45590U 20025BM  26061.61630938  .00035867  00000+0  77485-3 0  9995,2 45590  53.0530 127.2116 0002944   5.9082 354.1957 15.44197146324199
STARLINK-1443,45660,53.1347,0.0001716,15.24853023,490.04803003413963,492.405595694715,1 45660U 20035D   26061.91668981  .00045605  00000+0  18142-2 0  9991,2 45660  53.1347  96.1397 0001716  59.1671  35.9290 15.24853023  5821
STARLINK-1446,45663,53.025,5.48e-05,15.42522141,438.2949539543433,439.0420758387763,1 45663U 20035G   26061.62016418  .00022716  00000+0  52350-3 0  9992,2 45663  53.0250  32.9484 0000548 228.5751 131.5207 15.42522141318589
STARLINK-1448,45665,53.051,0.0007337,15.50664953,409.7994583786731,419.7673898089879,1 45665U 20035J   26061.69372801  .00103454  00000+0  17558-2 0  9991,2 45665  53.0510  86.3781 0007337  47.5874 312.5754 15.50664953317833
STARLINK-1451,45668,53.0525,0.0001363,15.09609553,536.4495859778344,538.3347592302862,1 45668U 20035M   26061.39922790  .00025707  00000+0  15934-2 0  9999,2 45668  53.0525  98.9666 0001363 354.9780   5.1197 15.09609553317641
STARLINK-1452,45669,53.033,0.0007987,15.43618821,429.9974155284035,440.881422500137,1 45669U 20035N   26061.30274357  .00081731  00000+0  17766-2 0  9994,2 45669  53.0330  56.8904 0007987  25.5290 334.6108 15.43618821318222
STARLINK-1453,45670,53.0495,0.0008187,15.50562472,409.52112051353015,420.64433849862235,1 45670U 20035P   26061.23414418  .00109983  00000+0  18709-2 0  9990,2 45670  53.0495  49.1856 0008187  15.5327 344.5931 15.50562472318211
STARLINK-1454,45671,53.0516,0.0008623,15.49225233,413.130122487476,424.8524499298719,1 45671U 20035Q   26061.46546860  .00095804  00000+0  17123-2 0  9998,2 45671  53.0516  87.5299 0008623  30.2632 329.8873 15.49225233317793
